TDRS 11                 
1 39070U 13004A   26063.61780826  .00000071  00000+0  00000+0 0  9998
2 39070   3.3676  29.3560 0003958 350.5766 190.4967  1.00276642 45641
TDRS 12                 
1 39504U 14004A   26063.19489132 -.00000280  00000+0  00000+0 0  9993
2 39504   3.8756  17.2364 0003943 267.4092 266.5662  1.00270148 43221
GPM-CORE                
1 39574U 14009C   26063.78967756  .00012803  00000+0  27771-3 0  9994
2 39574  64.9733 297.9009 0012423 264.8033  95.1689 15.44622538681683
MMS 1                   
1 40482U 15011A   26063.91668981 -.00001913  00000+0  00000+0 0  9994
2 40482  70.7316 350.2264 8412584 165.2360 102.9657  0.28322917  1332
MMS 2                   
1 40483U 15011B   26063.91668981 -.00001913  00000+0  00000+0 0  9995
2 40483  70.7319 350.2285 8413315 165.2421 102.9492  0.28322922  1333
MMS 3                   
1 40484U 15011C   26063.91668981 -.00001913  00000+0  00000+0 0  9996
2 40484  70.7342 350.2332 8412600 165.2363 102.9578  0.28322890  1333
MMS 4                   
1 40485U 15011D   26063.91668981 -.00001913  00000+0  00000+0 0  9997
2 40485  70.7324 350.2283 8412105 165.2436 102.9434  0.28322889  1339
TDRS 13                 
1 42915U 17047A   26063.32128137 -.00000110  00000+0  00000+0 0  9995
2 42915   3.4296   0.0631 0010215  99.1984 166.9938  1.00272194 31299
NOAA 20 (JPSS-1)        
1 43013U 17073A   26063.75345911  .00000102  00000+0  69077-4 0  9996
2 43013  98.7687   4.1898 0000982 144.1759 215.9483 14.19534546429658
